<?xml version="1.0" encoding="UTF-8"?>
<ndm xmlns:xsi="http://www.w3.org/2001/XMLSchema-instance" xsi:noNamespaceSchemaLocation="https://sanaregistry.org/r/ndmxml_unqualified/ndmxml-2.0.0-master-2.0.xsd">
<omm id="CCSDS_OMM_VERS" version="2.0">
<header><CREATION_DATE/><ORIGINATOR/></header><body><segment><metadata><OBJECT_NAME>IRIDIUM 39</OBJECT_NAME><OBJECT_ID>1997-069D</OBJECT_ID><CENTER_NAME>EARTH</CENTER_NAME><REF_FRAME>TEME</REF_FRAME><TIME_SYSTEM>UTC</TIME_SYSTEM><MEAN_ELEMENT_THEORY>SGP4</MEAN_ELEMENT_THEORY></metadata><data><meanElements><EPOCH>2025-03-28T11:29:13.834176</EPOCH><MEAN_MOTION>14.49048121</MEAN_MOTION><ECCENTRICITY>.0016842</ECCENTRICITY><INCLINATION>86.3879</INCLINATION><RA_OF_ASC_NODE>245.7187</RA_OF_ASC_NODE><ARG_OF_PERICENTER>210.7257</ARG_OF_PERICENTER><MEAN_ANOMALY>149.2962</MEAN_ANOMALY></meanElements><tleParameters><EPHEMERIS_TYPE>0</EPHEMERIS_TYPE><CLASSIFICATION_TYPE>U</CLASSIFICATION_TYPE><NORAD_CAT_ID>25042</NORAD_CAT_ID><ELEMENT_SET_NO>999</ELEMENT_SET_NO><REV_AT_EPOCH>43727</REV_AT_EPOCH><BSTAR>.52392E-3</BSTAR><MEAN_MOTION_DOT>.2011E-4</MEAN_MOTION_DOT><MEAN_MOTION_DDOT>0</MEAN_MOTION_DDOT></tleParameters></data></segment></body></omm>
<omm id="CCSDS_OMM_VERS" version="2.0">
<header><CREATION_DATE/><ORIGINATOR/></header><body><segment><metadata><OBJECT_NAME>IRIDIUM 38</OBJECT_NAME><OBJECT_ID>1997-069E</OBJECT_ID><CENTER_NAME>EARTH</CENTER_NAME><REF_FRAME>TEME</REF_FRAME><TIME_SYSTEM>UTC</TIME_SYSTEM><MEAN_ELEMENT_THEORY>SGP4</MEAN_ELEMENT_THEORY></metadata><data><meanElements><EPOCH>2025-03-28T10:54:05.422752</EPOCH><MEAN_MOTION>14.38002568</MEAN_MOTION><ECCENTRICITY>.00029</ECCENTRICITY><INCLINATION>86.3897</INCLINATION><RA_OF_ASC_NODE>267.1290</RA_OF_ASC_NODE><ARG_OF_PERICENTER>48.9215</ARG_OF_PERICENTER><MEAN_ANOMALY>311.2233</MEAN_ANOMALY></meanElements><tleParameters><EPHEMERIS_TYPE>0</EPHEMERIS_TYPE><CLASSIFICATION_TYPE>U</CLASSIFICATION_TYPE><NORAD_CAT_ID>25043</NORAD_CAT_ID><ELEMENT_SET_NO>999</ELEMENT_SET_NO><REV_AT_EPOCH>43435</REV_AT_EPOCH><BSTAR>.39995E-3</BSTAR><MEAN_MOTION_DOT>.1228E-4</MEAN_MOTION_DOT><MEAN_MOTION_DDOT>0</MEAN_MOTION_DDOT></tleParameters></data></segment></body></omm>
<omm id="CCSDS_OMM_VERS" version="2.0">
<header><CREATION_DATE/><ORIGINATOR/></header><body><segment><metadata><OBJECT_NAME>IRIDIUM 42</OBJECT_NAME><OBJECT_ID>1997-077A</OBJECT_ID><CENTER_NAME>EARTH</CENTER_NAME><REF_FRAME>TEME</REF_FRAME><TIME_SYSTEM>UTC</TIME_SYSTEM><MEAN_ELEMENT_THEORY>SGP4</MEAN_ELEMENT_THEORY></metadata><data><meanElements><EPOCH>2025-03-28T12:01:11.056224</EPOCH><MEAN_MOTION>14.36247000</MEAN_MOTION><ECCENTRICITY>.0002438</ECCENTRICITY><INCLINATION>86.3900</INCLINATION><RA_OF_ASC_NODE>273.1862</RA_OF_ASC_NODE><ARG_OF_PERICENTER>73.8197</ARG_OF_PERICENTER><MEAN_ANOMALY>286.3268</MEAN_ANOMALY></meanElements><tleParameters><EPHEMERIS_TYPE>0</EPHEMERIS_TYPE><CLASSIFICATION_TYPE>U</CLASSIFICATION_TYPE><NORAD_CAT_ID>25077</NORAD_CAT_ID><ELEMENT_SET_NO>999</ELEMENT_SET_NO><REV_AT_EPOCH>42961</REV_AT_EPOCH><BSTAR>.37838E-3</BSTAR><MEAN_MOTION_DOT>.1124E-4</MEAN_MOTION_DOT><MEAN_MOTION_DDOT>0</MEAN_MOTION_DDOT></tleParameters></data></segment></body></omm>
<omm id="CCSDS_OMM_VERS" version="2.0">
<header><CREATION_DATE/><ORIGINATOR/></header><body><segment><metadata><OBJECT_NAME>IRIDIUM 44</OBJECT_NAME><OBJECT_ID>1997-077B</OBJECT_ID><CENTER_NAME>EARTH</CENTER_NAME><REF_FRAME>TEME</REF_FRAME><TIME_SYSTEM>UTC</TIME_SYSTEM><MEAN_ELEMENT_THEORY>SGP4</MEAN_ELEMENT_THEORY></metadata><data><meanElements><EPOCH>2025-03-28T11:08:57.263424</EPOCH><MEAN_MOTION>14.40133661</MEAN_MOTION><ECCENTRICITY>.0000826</ECCENTRICITY><INCLINATION>86.3911</INCLINATION><RA_OF_ASC_NODE>255.3198</RA_OF_ASC_NODE><ARG_OF_PERICENTER>28.5926</ARG_OF_PERICENTER><MEAN_ANOMALY>331.5318</MEAN_ANOMALY></meanElements><tleParameters><EPHEMERIS_TYPE>0</EPHEMERIS_TYPE><CLASSIFICATION_TYPE>U</CLASSIFICATION_TYPE><NORAD_CAT_ID>25078</NORAD_CAT_ID><ELEMENT_SET_NO>999</ELEMENT_SET_NO><REV_AT_EPOCH>43208</REV_AT_EPOCH><BSTAR>.40354E-3</BSTAR><MEAN_MOTION_DOT>.1293E-4</MEAN_MOTION_DOT><MEAN_MOTION_DDOT>0</MEAN_MOTION_DDOT></tleParameters></data></segment></body></omm>
<omm id="CCSDS_OMM_VERS" version="2.0">
<header><CREATION_DATE/><ORIGINATOR/></header><body><segment><metadata><OBJECT_NAME>IRIDIUM 45</OBJECT_NAME><OBJECT_ID>1997-082A</OBJECT_ID><CENTER_NAME>EARTH</CENTER_NAME><REF_FRAME>TEME</REF_FRAME><TIME_SYSTEM>UTC</TIME_SYSTEM><MEAN_ELEMENT_THEORY>SGP4</MEAN_ELEMENT_THEORY></metadata><data><meanElements><EPOCH>2025-03-28T10:42:04.649760</EPOCH><MEAN_MOTION>15.18721960</MEAN_MOTION><ECCENTRICITY>.0121252</ECCENTRICITY><INCLINATION>86.3538</INCLINATION><RA_OF_ASC_NODE>87.0024</RA_OF_ASC_NODE><ARG_OF_PERICENTER>273.5095</ARG_OF_PERICENTER><MEAN_ANOMALY>85.2285</MEAN_ANOMALY></meanElements><tleParameters><EPHEMERIS_TYPE>0</EPHEMERIS_TYPE><CLASSIFICATION_TYPE>U</CLASSIFICATION_TYPE><NORAD_CAT_ID>25104</NORAD_CAT_ID><ELEMENT_SET_NO>999</ELEMENT_SET_NO><REV_AT_EPOCH>43977</REV_AT_EPOCH><BSTAR>.10967E-2</BSTAR><MEAN_MOTION_DOT>.27757E-3</MEAN_MOTION_DOT><MEAN_MOTION_DDOT>0</MEAN_MOTION_DDOT></tleParameters></data></segment></body></omm>
<omm id="CCSDS_OMM_VERS" version="2.0">
<header><CREATION_DATE/><ORIGINATOR/></header><body><segment><metadata><OBJECT_NAME>IRIDIUM 24</OBJECT_NAME><OBJECT_ID>1997-082B</OBJECT_ID><CENTER_NAME>EARTH</CENTER_NAME><REF_FRAME>TEME</REF_FRAME><TIME_SYSTEM>UTC</TIME_SYSTEM><MEAN_ELEMENT_THEORY>SGP4</MEAN_ELEMENT_THEORY></metadata><data><meanElements><EPOCH>2025-03-28T11:19:11.804160</EPOCH><MEAN_MOTION>14.41976798</MEAN_MOTION><ECCENTRICITY>.0010966</ECCENTRICITY><INCLINATION>86.3868</INCLINATION><RA_OF_ASC_NODE>114.5505</RA_OF_ASC_NODE><ARG_OF_PERICENTER>356.8924</ARG_OF_PERICENTER><MEAN_ANOMALY>3.2206</MEAN_ANOMALY></meanElements><tleParameters><EPHEMERIS_TYPE>0</EPHEMERIS_TYPE><CLASSIFICATION_TYPE>U</CLASSIFICATION_TYPE><NORAD_CAT_ID>25105</NORAD_CAT_ID><ELEMENT_SET_NO>999</ELEMENT_SET_NO><REV_AT_EPOCH>43158</REV_AT_EPOCH><BSTAR>.3439E-3</BSTAR><MEAN_MOTION_DOT>.1147E-4</MEAN_MOTION_DOT><MEAN_MOTION_DDOT>0</MEAN_MOTION_DDOT></tleParameters></data></segment></body></omm>
<omm id="CCSDS_OMM_VERS" version="2.0">
<header><CREATION_DATE/><ORIGINATOR/></header><body><segment><metadata><OBJECT_NAME>IRIDIUM 51</OBJECT_NAME><OBJECT_ID>1998-018A</OBJECT_ID><CENTER_NAME>EARTH</CENTER_NAME><REF_FRAME>TEME</REF_FRAME><TIME_SYSTEM>UTC</TIME_SYSTEM><MEAN_ELEMENT_THEORY>SGP4</MEAN_ELEMENT_THEORY></metadata><data><meanElements><EPOCH>2025-03-28T11:23:02.836032</EPOCH><MEAN_MOTION>15.33059776</MEAN_MOTION><ECCENTRICITY>.0098138</ECCENTRICITY><INCLINATION>86.3806</INCLINATION><RA_OF_ASC_NODE>95.6054</RA_OF_ASC_NODE><ARG_OF_PERICENTER>196.9858</ARG_OF_PERICENTER><MEAN_ANOMALY>162.8101</MEAN_ANOMALY></meanElements><tleParameters><EPHEMERIS_TYPE>0</EPHEMERIS_TYPE><CLASSIFICATION_TYPE>U</CLASSIFICATION_TYPE><NORAD_CAT_ID>25262</NORAD_CAT_ID><ELEMENT_SET_NO>999</ELEMENT_SET_NO><REV_AT_EPOCH>43463</REV_AT_EPOCH><BSTAR>.10083E-2</BSTAR><MEAN_MOTION_DOT>.37719E-3</MEAN_MOTION_DOT><MEAN_MOTION_DDOT>0</MEAN_MOTION_DDOT></tleParameters></data></segment></body></omm>
<omm id="CCSDS_OMM_VERS" version="2.0">
<header><CREATION_DATE/><ORIGINATOR/></header><body><segment><metadata><OBJECT_NAME>IRIDIUM 57</OBJECT_NAME><OBJECT_ID>1998-019B</OBJECT_ID><CENTER_NAME>EARTH</CENTER_NAME><REF_FRAME>TEME</REF_FRAME><TIME_SYSTEM>UTC</TIME_SYSTEM><MEAN_ELEMENT_THEORY>SGP4</MEAN_ELEMENT_THEORY></metadata><data><meanElements><EPOCH>2025-03-28T07:59:39.090048</EPOCH><MEAN_MOTION>14.35815260</MEAN_MOTION><ECCENTRICITY>.0002176</ECCENTRICITY><INCLINATION>86.4035</INCLINATION><RA_OF_ASC_NODE>179.1107</RA_OF_ASC_NODE><ARG_OF_PERICENTER>93.1031</ARG_OF_PERICENTER><MEAN_ANOMALY>267.0415</MEAN_ANOMALY></meanElements><tleParameters><EPHEMERIS_TYPE>0</EPHEMERIS_TYPE><CLASSIFICATION_TYPE>U</CLASSIFICATION_TYPE><NORAD_CAT_ID>25273</NORAD_CAT_ID><ELEMENT_SET_NO>999</ELEMENT_SET_NO><REV_AT_EPOCH>41318</REV_AT_EPOCH><BSTAR>.30974E-3</BSTAR><MEAN_MOTION_DOT>.915E-5</MEAN_MOTION_DOT><MEAN_MOTION_DDOT>0</MEAN_MOTION_DDOT></tleParameters></data></segment></body></omm>

</ndm>
