IRIDIUM 39              
1 25042U 97069D   25087.47863234  .00002011  00000+0  52392-3 0  9990
2 25042  86.3879 245.7187 0016842 210.7257 149.2962 14.49048121437275
IRIDIUM 38              
1 25043U 97069E   25087.45422943  .00001228  00000+0  39995-3 0  9990
2 25043  86.3897 267.1290 0002900  48.9215 311.2233 14.38002568434355
IRIDIUM 42              
1 25077U 97077A   25087.50082241  .00001124  00000+0  37838-3 0  9994
2 25077  86.3900 273.1862 0002438  73.8197 286.3268 14.36247000429614
IRIDIUM 44              
1 25078U 97077B   25087.46455166  .00001293  00000+0  40354-3 0  9994
2 25078  86.3911 255.3198 0000826  28.5926 331.5318 14.40133661432083
IRIDIUM 45              
1 25104U 97082A   25087.44588715  .00027757  00000+0  10967-2 0  9994
2 25104  86.3538  87.0024 0121252 273.5095  85.2285 15.18721960439772
IRIDIUM 24              
1 25105U 97082B   25087.47166440  .00001147  00000+0  34390-3 0  9997
2 25105  86.3868 114.5505 0010966 356.8924   3.2206 14.41976798431584
IRIDIUM 51              
1 25262U 98018A   25087.47433838  .00037719  00000+0  10083-2 0  9995
2 25262  86.3806  95.6054 0098138 196.9858 162.8101 15.33059776434639
IRIDIUM 57              
1 25273U 98019B   25087.33309132  .00000915  00000+0  30974-3 0  9992
2 25273  86.4035 179.1107 0002176  93.1031 267.0415 14.35815260413183
